ONEWEB-0667             
1 55827U 23029AH  26204.16361846 -.00000048  00000+0 -14941-3 0  9997
2 55827  87.9215 267.2683 0001411  84.9063 275.2232 13.20769964165891
ONEWEB-0669             
1 55828U 23029AJ  26204.15857266 -.00000077  00000+0 -22138-3 0  9992
2 55828  87.9176 267.2728 0001516  91.2903 268.8404 13.20770461165891
ONEWEB-0670             
1 55829U 23029AK  26203.30260148  .00000235  00000+0  60020-3 0  9992
2 55829  87.8954 282.7413 0001752 109.4454 250.6865 13.14502572164048
ONEWEB-0671             
1 55830U 23029AL  26204.00066354 -.00000063  00000+0 -19055-3 0  9998
2 55830  87.9180 297.8446 0002042 104.8825 255.2534 13.19724079163629
ONEWEB-0672             
1 55831U 23029AM  26204.15352835  .00000001  00000+0 -28334-4 0  9999
2 55831  87.9176 267.2676 0001968  90.6920 269.4439 13.20771295165891
ONEWEB-0673             
1 55832U 23029AN  26204.20520892  .00000010  00000+0 -68348-5 0  9996
2 55832  87.9189 297.7979 0002012 103.8834 256.2523 13.19725560163654
ONEWEB-0674             
1 55833U 23029AP  26204.18429137 -.00000021  00000+0 -90611-4 0  9994
2 55833  87.8956 282.5427 0001718 107.5406 252.5912 13.14501850164149
ONEWEB-0675             
1 55834U 23029AQ  26204.22022387  .00000039  00000+0  63925-4 0  9991
2 55834  87.9184 297.8027 0002186  94.4957 265.6425 13.19725759163676
ONEWEB-0720             
1 55835U 23029AR  26204.21231448  .00000111  00000+0  24584-3 0  9999
2 55835  87.9186 297.8047 0002312 106.6875 253.4512 13.19727281163592
ONEWEB-0537             
1 56046U 23043A   26204.29316022  .00000039  00000+0  69186-4 0  9997
2 56046  87.9077 221.5989 0002112  86.8415 273.2958 13.16594704163719
ONEWEB-0538             
1 56047U 23043B   26204.28682457 -.00000009  00000+0 -58329-4 0  9991
2 56047  87.9082 221.6032 0002307  91.0058 269.1337 13.16594104163723
ONEWEB-0546             
1 56048U 23043C   26204.27416004  .00000031  00000+0  46725-4 0  9994
2 56048  87.9079 221.6058 0002006  72.7117 287.4233 13.16593102163710
ONEWEB-0547             
1 56049U 23043D   26204.12821809  .00000113  00000+0  24274-3 0  9997
2 56049  87.9228 236.8212 0002240  96.5731 263.5658 13.21824237162978
ONEWEB-0548             
1 56050U 23043E   26204.29868333  .00000015  00000+0  63967-5 0  9995
2 56050  87.9078 221.5961 0001573  97.1036 263.0273 13.16595082163716
ONEWEB-0549             
1 56051U 23043F   26204.04664623 -.00001203  00000+0 -29445-2 0  9997
2 56051  87.9227 236.8424 0002443  94.8015 265.3398 13.21814715162966
ONEWEB-0550             
1 56052U 23043G   26204.10887634  .00000124  00000+0  26788-3 0  9991
2 56052  87.9231 236.8289 0001892  99.7230 260.4118 13.21827901162979
ONEWEB-0551             
1 56053U 23043H   26204.13036190  .00000081  00000+0  18097-3 0  9994
2 56053  87.8981 252.0647 0002447  99.2407 260.9000 13.15547925161126
ONEWEB-0552             
1 56054U 23043J   26204.17951929  .00000006  00000+0 -16134-4 0  9994
2 56054  87.9214 236.8166 0002362 103.4253 256.7145 13.21825793162983
ONEWEB-0553             
1 56055U 23043K   26204.28049179  .00000052  00000+0  10302-3 0  9992
2 56055  87.9085 221.6044 0001877  82.6956 277.4388 13.16593679163726
ONEWEB-0554             
1 56056U 23043L   26204.11583293  .00000015  00000+0  68448-5 0  9990
2 56056  87.9073 221.6454 0001537  98.9441 261.1864 13.16594429163689
ONEWEB-0555             
1 56057U 23043M   26204.07782786 -.00000045  00000+0 -15032-3 0  9998
2 56057  87.9076 221.6419 0001969  75.7885 284.3465 13.16594342163686
ONEWEB-0557             
1 56058U 23043N   26204.09207784 -.00000026  00000+0 -10130-3 0  9994
2 56058  87.9076 221.6491 0000915  68.2640 291.8588 13.16594189163681
ONEWEB-0558             
1 56059U 23043P   26204.32419228  .00000048  00000+0  84418-4 0  9992
2 56059  87.9230 236.7860 0002349  91.5534 268.5869 13.21825831163012
ONEWEB-0559             
1 56060U 23043Q   26204.16103355 -.00000105  00000+0 -28674-3 0  9994
2 56060  87.9220 236.8126 0003433 112.1984 247.9514 13.21824210163000
ONEWEB-0566             
1 56061U 23043R   26204.07861077  .00000022  00000+0  20634-4 0  9992
2 56061  87.9229 236.8284 0002348  98.7961 261.3439 13.21823790162976
ONEWEB-0568             
1 56062U 23043S   26204.10948303  .00000096  00000+0  21878-3 0  9996
2 56062  87.9073 221.6349 0001994  84.9381 275.1978 13.16596011163707
ONEWEB-0574             
1 56063U 23043T   26204.14758154 -.00000015  00000+0 -68498-4 0  9997
2 56063  87.9234 236.8200 0001833  94.7076 265.4267 13.21825157163023
ONEWEB-0575             
1 56064U 23043U   26204.10314749  .00000041  00000+0  73033-4 0  9990
2 56064  87.9074 221.6326 0001640  86.9770 273.1548 13.16595392163697
ONEWEB-0576             
1 56065U 23043V   26204.31213563 -.00000308  00000+0 -83998-3 0  9994
2 56065  87.9080 221.5998 0001828  90.1468 269.9873 13.16593298163718
ONEWEB-0577             
1 56066U 23043W   26204.09048272 -.00000028  00000+0 -10638-3 0  9993
2 56066  87.9078 221.6414 0001261  93.2778 266.8497 13.16595791163717
