OBJECT_NAME,OBJECT_ID,EPOCH,MEAN_MOTION,ECCENTRICITY,INCLINATION,RA_OF_ASC_NODE,ARG_OF_PERICENTER,MEAN_ANOMALY,EPHEMERIS_TYPE,CLASSIFICATION_TYPE,NORAD_CAT_ID,ELEMENT_SET_NO,REV_AT_EPOCH,BSTAR,MEAN_MOTION_DOT,MEAN_MOTION_DDOT
ONEWEB-0667,2023-029AH,2026-07-23T03:55:36.634944,13.20769964,.0001411,87.9215,267.2683,84.9063,275.2232,0,U,55827,999,16589,-.14941365E-3,-.48E-6,0
ONEWEB-0669,2023-029AJ,2026-07-23T03:48:20.677824,13.20770461,.00015169,87.9176,267.2728,91.2903,268.8404,0,U,55828,999,16589,-.22138492E-3,-.77E-6,0
ONEWEB-0670,2023-029AK,2026-07-22T07:15:44.767872,13.14502572,.00017523,87.8954,282.7413,109.4454,250.6865,0,U,55829,999,16404,.60019707E-3,.235E-5,0
ONEWEB-0671,2023-029AL,2026-07-23T00:00:57.329856,13.19724079,.00020422,87.9180,297.8446,104.8825,255.2534,0,U,55830,999,16362,-.19055406E-3,-.63E-6,0
ONEWEB-0672,2023-029AM,2026-07-23T03:41:04.849440,13.20771295,.00019682,87.9176,267.2676,90.6920,269.4439,0,U,55831,999,16589,-.28334283E-4,.1E-7,0
ONEWEB-0673,2023-029AN,2026-07-23T04:55:30.050688,13.19725560,.00020125,87.9189,297.7979,103.8834,256.2523,0,U,55832,999,16365,-.6834768E-5,.1E-6,0
ONEWEB-0674,2023-029AP,2026-07-23T04:25:22.774368,13.14501850,.00017186,87.8956,282.5427,107.5406,252.5912,0,U,55833,999,16414,-.90610567E-4,-.21E-6,0
ONEWEB-0675,2023-029AQ,2026-07-23T05:17:07.342368,13.19725759,.00021869,87.9184,297.8027,94.4957,265.6425,0,U,55834,999,16367,.63925498E-4,.39E-6,0
ONEWEB-0720,2023-029AR,2026-07-23T05:05:43.971072,13.19727281,.00023129,87.9186,297.8047,106.6875,253.4512,0,U,55835,999,16359,.24583775E-3,.111E-5,0
ONEWEB-0537,2023-043A,2026-07-23T07:02:09.043008,13.16594704,.00021127,87.9077,221.5989,86.8415,273.2958,0,U,56046,999,16371,.69185653E-4,.39E-6,0
ONEWEB-0538,2023-043B,2026-07-23T06:53:01.642848,13.16594104,.0002307,87.9082,221.6032,91.0058,269.1337,0,U,56047,999,16372,-.58328812E-4,-.9E-7,0
ONEWEB-0546,2023-043C,2026-07-23T06:34:47.427456,13.16593102,.00020069,87.9079,221.6058,72.7117,287.4233,0,U,56048,999,16371,.46724796E-4,.31E-6,0
ONEWEB-0547,2023-043D,2026-07-23T03:04:38.042976,13.21824237,.00022403,87.9228,236.8212,96.5731,263.5658,0,U,56049,999,16297,.24273538E-3,.113E-5,0
ONEWEB-0548,2023-043E,2026-07-23T07:10:06.239712,13.16595082,.00015732,87.9078,221.5961,97.1036,263.0273,0,U,56050,999,16371,.6396744E-5,.15E-6,0
ONEWEB-0549,2023-043F,2026-07-23T01:07:10.234272,13.21814715,.00024439,87.9227,236.8424,94.8015,265.3398,0,U,56051,999,16296,-.29445294E-2,-.1203E-4,0
ONEWEB-0550,2023-043G,2026-07-23T02:36:46.915776,13.21827901,.00018924,87.9231,236.8289,99.7230,260.4118,0,U,56052,999,16297,.26788254E-3,.124E-5,0
ONEWEB-0551,2023-043H,2026-07-23T03:07:43.268160,13.15547925,.0002447,87.8981,252.0647,99.2407,260.9000,0,U,56053,999,16112,.18096505E-3,.81E-6,0
ONEWEB-0552,2023-043J,2026-07-23T04:18:30.466656,13.21825793,.00023627,87.9214,236.8166,103.4253,256.7145,0,U,56054,999,16298,-.16133674E-4,.6E-7,0
ONEWEB-0553,2023-043K,2026-07-23T06:43:54.490656,13.16593679,.00018774,87.9085,221.6044,82.6956,277.4388,0,U,56055,999,16372,.10302053E-3,.52E-6,0
ONEWEB-0554,2023-043L,2026-07-23T02:46:47.965152,13.16594429,.00015375,87.9073,221.6454,98.9441,261.1864,0,U,56056,999,16368,.6844812E-5,.15E-6,0
ONEWEB-0555,2023-043M,2026-07-23T01:52:04.327104,13.16594342,.00019698,87.9076,221.6419,75.7885,284.3465,0,U,56057,999,16368,-.15032444E-3,-.45E-6,0
ONEWEB-0557,2023-043N,2026-07-23T02:12:35.525376,13.16594189,.00009152,87.9076,221.6491,68.2640,291.8588,0,U,56058,999,16368,-.10130138E-3,-.26E-6,0
ONEWEB-0558,2023-043P,2026-07-23T07:46:50.212992,13.21825831,.00023491,87.9230,236.7860,91.5534,268.5869,0,U,56059,999,16301,.84418375E-4,.48E-6,0
ONEWEB-0559,2023-043Q,2026-07-23T03:51:53.298720,13.21824210,.00034334,87.9220,236.8126,112.1984,247.9514,0,U,56060,999,16300,-.28674395E-3,-.105E-5,0
ONEWEB-0566,2023-043R,2026-07-23T01:53:11.970528,13.21823790,.00023484,87.9229,236.8284,98.7961,261.3439,0,U,56061,999,16297,.20633894E-4,.22E-6,0
ONEWEB-0568,2023-043S,2026-07-23T02:37:39.333792,13.16596011,.00019943,87.9073,221.6349,84.9381,275.1978,0,U,56062,999,16370,.21877549E-3,.96E-6,0
ONEWEB-0574,2023-043T,2026-07-23T03:32:31.045056,13.21825157,.0001833,87.9234,236.8200,94.7076,265.4267,0,U,56063,999,16302,-.68497953E-4,-.15E-6,0
ONEWEB-0575,2023-043U,2026-07-23T02:28:31.943136,13.16595392,.00016409,87.9074,221.6326,86.9770,273.1548,0,U,56064,999,16369,.7303294E-4,.41E-6,0
ONEWEB-0576,2023-043V,2026-07-23T07:29:28.518432,13.16593298,.00018288,87.9080,221.5998,90.1468,269.9873,0,U,56065,999,16371,-.83998151E-3,-.308E-5,0
ONEWEB-0577,2023-043W,2026-07-23T02:10:17.707008,13.16595791,.0001261,87.9078,221.6414,93.2778,266.8497,0,U,56066,999,16371,-.10638497E-3,-.28E-6,0
